start=new Date('2022-12-24T00:00:00.000Z').valueOf();
sats=[{"APOAPSIS":"548.429","ECCENTRICITY":"0.00017160","ELEMENT_SET_NO":"999","MEAN_MOTION":"15.06391238","GP_ID":"221305912","NORAD_CAT_ID":"48411","EPHEMERIS_TYPE":"0","REF_FRAME":"TEME","DECAY_DATE":null,"INCLINATION":"53.0538","REV_AT_EPOCH":"9138","MEAN_ELEMENT_THEORY":"SGP4","MEAN_MOTION_DDOT":"0.0000000000000","ARG_OF_PERICENTER":"63.9789","RA_OF_ASC_NODE":"152.3906","CENTER_NAME":"EARTH","TIME_SYSTEM":"UTC","PERIOD":"95.593","BSTAR":"0.00005781100000","FILE":"3720518","OBJECT_TYPE":"PAYLOAD","PERIAPSIS":"546.052","COUNTRY_CODE":"US","RCS_SIZE":"LARGE","EPOCH":"2022-12-23T19:28:50.378016","TLE_LINE1":"1 48411U 21038BL  22357.81169419  .00000579  00000-0  57811-4 0  9997","MEAN_MOTION_DOT":"0.00000579","TLE_LINE2":"2 48411  53.0538 152.3906 0001716  63.9789 296.1376 15.06391238 91380","CLASSIFICATION_TYPE":"U","OBJECT_ID":"2021-038BL","SEMIMAJOR_AXIS":"6925.375","SITE":"AFETR","OBJECT_NAME":"STARLINK-2505","LAUNCH_DATE":"2021-05-04","MEAN_ANOMALY":"296.1376"},{"OBJECT_NAME":"STARLINK-2581","LAUNCH_DATE":"2021-05-04","MEAN_ANOMALY":"265.1453","OBJECT_ID":"2021-038BM","SITE":"AFETR","SEMIMAJOR_AXIS":"6925.376","TLE_LINE2":"2 48412  53.0550 153.0457 0001265  94.9681 265.1453 15.06391011 91941","MEAN_MOTION_DOT":"0.00000633","CLASSIFICATION_TYPE":"U","OBJECT_TYPE":"PAYLOAD","PERIAPSIS":"546.365","FILE":"3720607","TLE_LINE1":"1 48412U 21038BM  22357.76384977  .00000633  00000-0  61429-4 0  9991","COUNTRY_CODE":"US","EPOCH":"2022-12-23T18:19:56.620128","RCS_SIZE":"LARGE","PERIOD":"95.593","CENTER_NAME":"EARTH","TIME_SYSTEM":"UTC","BSTAR":"0.00006142900000","MEAN_ELEMENT_THEORY":"SGP4","MEAN_MOTION_DDOT":"0.0000000000000","REV_AT_EPOCH":"9194","RA_OF_ASC_NODE":"153.0457","ARG_OF_PERICENTER":"94.9681","EPHEMERIS_TYPE":"0","NORAD_CAT_ID":"48412","REF_FRAME":"TEME","INCLINATION":"53.0550","DECAY_DATE":null,"ELEMENT_SET_NO":"999","MEAN_MOTION":"15.06391011","APOAPSIS":"548.117","ECCENTRICITY":"0.00012650","GP_ID":"221312002"},{"GP_ID":"221310212","MEAN_MOTION":"15.06377027","ELEMENT_SET_NO":"999","APOAPSIS":"548.657","ECCENTRICITY":"0.00019830","INCLINATION":"53.0548","DECAY_DATE":null,"NORAD_CAT_ID":"48428","EPHEMERIS_TYPE":"0","REF_FRAME":"TEME","RA_OF_ASC_NODE":"48.4622","ARG_OF_PERICENTER":"40.9555","MEAN_ELEMENT_THEORY":"SGP4","MEAN_MOTION_DDOT":"0.0000000000000","REV_AT_EPOCH":"9117","BSTAR":"0.00021825000000","PERIOD":"95.594","TIME_SYSTEM":"UTC","CENTER_NAME":"EARTH","TLE_LINE1":"1 48428U 21040A   22357.57257304  .00002969  00000-0  21825-3 0  9992","COUNTRY_CODE":"US","RCS_SIZE":"LARGE","EPOCH":"2022-12-23T13:44:30.310656","OBJECT_TYPE":"PAYLOAD","PERIAPSIS":"545.911","FILE":"3720532","CLASSIFICATION_TYPE":"U","TLE_LINE2":"2 48428  53.0548  48.4622 0001983  40.9555 319.1583 15.06377027 91174","MEAN_MOTION_DOT":"0.00002969","SEMIMAJOR_AXIS":"6925.419","SITE":"AFETR","OBJECT_ID":"2021-040A","MEAN_ANOMALY":"319.1583","OBJECT_NAME":"STARLINK-2461","LAUNCH_DATE":"2021-05-09"},{"DECAY_DATE":null,"INCLINATION":"53.0546","REF_FRAME":"TEME","EPHEMERIS_TYPE":"0","NORAD_CAT_ID":"48429","GP_ID":"221275287","ECCENTRICITY":"0.00022250","APOAPSIS":"548.738","MEAN_MOTION":"15.06405246","ELEMENT_SET_NO":"999","BSTAR":"0.00119630000000","TIME_SYSTEM":"UTC","CENTER_NAME":"EARTH","PERIOD":"95.592","ARG_OF_PERICENTER":"52.9137","RA_OF_ASC_NODE":"18.6050","REV_AT_EPOCH":"9030","MEAN_MOTION_DDOT":"0.0000000000000","MEAN_ELEMENT_THEORY":"SGP4","CLASSIFICATION_TYPE":"U","MEAN_MOTION_DOT":"0.00017585","TLE_LINE2":"2 48429  53.0546  18.6050 0002225  52.9137 307.2055 15.06405246 90307","EPOCH":"2022-12-23T13:00:43.481088","RCS_SIZE":"LARGE","COUNTRY_CODE":"US","TLE_LINE1":"1 48429U 21040B   22357.54216992  .00017585  00000-0  11963-2 0  9999","FILE":"3720302","OBJECT_TYPE":"PAYLOAD","PERIAPSIS":"545.657","MEAN_ANOMALY":"307.2055","LAUNCH_DATE":"2021-05-09","OBJECT_NAME":"STARLINK-2749","SEMIMAJOR_AXIS":"6925.332","SITE":"AFETR","OBJECT_ID":"2021-040B"},{"OBJECT_ID":"2021-040C","SITE":"AFETR","SEMIMAJOR_AXIS":"6925.391","LAUNCH_DATE":"2021-05-09","OBJECT_NAME":"STARLINK-2729","MEAN_ANOMALY":"330.2381","OBJECT_TYPE":"PAYLOAD","PERIAPSIS":"545.434","FILE":"3720518","TLE_LINE1":"1 48430U 21040C   22357.57439321  .00001945  00000-0  14953-3 0  9993","EPOCH":"2022-12-23T13:47:07.573344","RCS_SIZE":"LARGE","COUNTRY_CODE":"US","TLE_LINE2":"2 48430  53.0536  18.4552 0002631  29.8757 330.2381 15.06386063 90319","MEAN_MOTION_DOT":"0.00001945","CLASSIFICATION_TYPE":"U","MEAN_MOTION_DDOT":"0.0000000000000","MEAN_ELEMENT_THEORY":"SGP4","REV_AT_EPOCH":"9031","RA_OF_ASC_NODE":"18.4552","ARG_OF_PERICENTER":"29.8757","PERIOD":"95.593","CENTER_NAME":"EARTH","TIME_SYSTEM":"UTC","BSTAR":"0.00014953000000","MEAN_MOTION":"15.06386063","ELEMENT_SET_NO":"999","ECCENTRICITY":"0.00026310","APOAPSIS":"549.078","GP_ID":"221304662","REF_FRAME":"TEME","EPHEMERIS_TYPE":"0","NORAD_CAT_ID":"48430","INCLINATION":"53.0536","DECAY_DATE":null},{"CLASSIFICATION_TYPE":"U","TLE_LINE2":"2 48431  53.0543  12.5064 0001866  49.0773 311.0378 15.06387078 90413","MEAN_MOTION_DOT":"0.00000765","TLE_LINE1":"1 48431U 21040D   22357.78679396  .00000765  00000-0  70300-4 0  9993","COUNTRY_CODE":"US","RCS_SIZE":"LARGE","EPOCH":"2022-12-23T18:52:58.998144","OBJECT_TYPE":"PAYLOAD","PERIAPSIS":"545.961","FILE":"3720518","MEAN_ANOMALY":"311.0378","OBJECT_NAME":"STARLINK-2700","LAUNCH_DATE":"2021-05-09","SEMIMAJOR_AXIS":"6925.388","SITE":"AFETR","OBJECT_ID":"2021-040D","INCLINATION":"53.0543","DECAY_DATE":null,"EPHEMERIS_TYPE":"0","NORAD_CAT_ID":"48431","REF_FRAME":"TEME","GP_ID":"221305914","ELEMENT_SET_NO":"999","MEAN_MOTION":"15.06387078","APOAPSIS":"548.545","ECCENTRICITY":"0.00018660","BSTAR":"0.00007030000000","PERIOD":"95.593","CENTER_NAME":"EARTH","TIME_SYSTEM":"UTC","RA_OF_ASC_NODE":"12.5064","ARG_OF_PERICENTER":"49.0773","MEAN_ELEMENT_THEORY":"SGP4","MEAN_MOTION_DDOT":"0.0000000000000","REV_AT_EPOCH":"9041"},{"BSTAR":"0.00008516200000","CENTER_NAME":"EARTH","TIME_SYSTEM":"UTC","PERIOD":"95.592","ARG_OF_PERICENTER":"49.8200","RA_OF_ASC_NODE":"7.9824","REV_AT_EPOCH":"9047","MEAN_ELEMENT_THEORY":"SGP4","MEAN_MOTION_DDOT":"0.0000000000000","DECAY_DATE":null,"INCLINATION":"53.0569","NORAD_CAT_ID":"48432","EPHEMERIS_TYPE":"0","REF_FRAME":"TEME","GP_ID":"221306143","APOAPSIS":"548.508","ECCENTRICITY":"0.00018520","ELEMENT_SET_NO":"999","MEAN_MOTION":"15.06396124","MEAN_ANOMALY":"310.2951","OBJECT_NAME":"STARLINK-2680","LAUNCH_DATE":"2021-05-09","SEMIMAJOR_AXIS":"6925.360","SITE":"AFETR","OBJECT_ID":"2021-040E","CLASSIFICATION_TYPE":"U","MEAN_MOTION_DOT":"0.00000987","TLE_LINE2":"2 48432  53.0569   7.9824 0001852  49.8200 310.2951 15.06396124 90478","COUNTRY_CODE":"US","RCS_SIZE":"LARGE","EPOCH":"2022-12-23T18:25:52.506912","TLE_LINE1":"1 48432U 21040E   22357.76796883  .00000987  00000-0  85162-4 0  9991","FILE":"3720518","PERIAPSIS":"545.943","OBJECT_TYPE":"PAYLOAD"},{"REF_FRAME":"TEME","EPHEMERIS_TYPE":"0","NORAD_CAT_ID":"48433","INCLINATION":"53.0533","DECAY_DATE":null,"ELEMENT_SET_NO":"999","MEAN_MOTION":"15.06398226","ECCENTRICITY":"0.00021610","APOAPSIS":"548.716","GP_ID":"221275787","PERIOD":"95.592","TIME_SYSTEM":"UTC","CENTER_NAME":"EARTH","BSTAR":"0.00034539000000","MEAN_MOTION_DDOT":"0.0000000000000","MEAN_ELEMENT_THEORY":"SGP4","REV_AT_EPOCH":"9035","RA_OF_ASC_NODE":"14.3065","ARG_OF_PERICENTER":"49.4860","TLE_LINE2":"2 48433  53.0533  14.3065 0002161  49.4860 310.6317 15.06398226 90353","MEAN_MOTION_DOT":"0.00004866","CLASSIFICATION_TYPE":"U","OBJECT_TYPE":"PAYLOAD","PERIAPSIS":"545.722","FILE":"3720302","TLE_LINE1":"1 48433U 21040F   22357.44866592  .00004866  00000-0  34539-3 0  9993","RCS_SIZE":"LARGE","EPOCH":"2022-12-23T10:46:04.735488","COUNTRY_CODE":"US","LAUNCH_DATE":"2021-05-09","OBJECT_NAME":"STARLINK-2699","MEAN_ANOMALY":"310.6317","OBJECT_ID":"2021-040F","SEMIMAJOR_AXIS":"6925.354","SITE":"AFETR"},{"BSTAR":"0.00010282000000","PERIOD":"95.593","CENTER_NAME":"EARTH","TIME_SYSTEM":"UTC","RA_OF_ASC_NODE":"19.1025","ARG_OF_PERICENTER":"63.9306","MEAN_MOTION_DDOT":"0.0000000000000","MEAN_ELEMENT_THEORY":"SGP4","REV_AT_EPOCH":"9030","INCLINATION":"53.0548","DECAY_DATE":null,"REF_FRAME":"TEME","EPHEMERIS_TYPE":"0","NORAD_CAT_ID":"48434","GP_ID":"221274544","ELEMENT_SET_NO":"999","MEAN_MOTION":"15.06385558","ECCENTRICITY":"0.00013390","APOAPSIS":"548.185","MEAN_ANOMALY":"296.1821","LAUNCH_DATE":"2021-05-09","OBJECT_NAME":"STARLINK-2692","SEMIMAJOR_AXIS":"6925.393","SITE":"AFETR","OBJECT_ID":"2021-040G","CLASSIFICATION_TYPE":"U","TLE_LINE2":"2 48434  53.0548  19.1025 0001339  63.9306 296.1821 15.06385558 90308","MEAN_MOTION_DOT":"0.00001250","TLE_LINE1":"1 48434U 21040G   22357.54591173  .00001250  00000-0  10282-3 0  9998","RCS_SIZE":"LARGE","EPOCH":"2022-12-23T13:06:06.773472","COUNTRY_CODE":"US","OBJECT_TYPE":"PAYLOAD","PERIAPSIS":"546.331","FILE":"3720302"},{"ARG_OF_PERICENTER":"38.3300","RA_OF_ASC_NODE":"27.3784","REV_AT_EPOCH":"9148","MEAN_ELEMENT_THEORY":"SGP4","MEAN_MOTION_DDOT":"0.0000000000000","BSTAR":"0.00013397000000","TIME_SYSTEM":"UTC","CENTER_NAME":"EARTH","PERIOD":"95.593","GP_ID":"221310119","APOAPSIS":"549.025","ECCENTRICITY":"0.00025590","MEAN_MOTION":"15.06387254","ELEMENT_SET_NO":"999","DECAY_DATE":null,"INCLINATION":"53.0549","EPHEMERIS_TYPE":"0","NORAD_CAT_ID":"48435","REF_FRAME":"TEME","SEMIMAJOR_AXIS":"6925.388","SITE":"AFETR","OBJECT_ID":"2021-040H","MEAN_ANOMALY":"321.7870","OBJECT_NAME":"STARLINK-2633","LAUNCH_DATE":"2021-05-09","COUNTRY_CODE":"US","RCS_SIZE":"LARGE","EPOCH":"2022-12-23T19:37:28.646688","TLE_LINE1":"1 48435U 21040H   22357.81769267  .00001713  00000-0  13397-3 0  9994","FILE":"3720534","OBJECT_TYPE":"PAYLOAD","PERIAPSIS":"545.480","CLASSIFICATION_TYPE":"U","MEAN_MOTION_DOT":"0.00001713","TLE_LINE2":"2 48435  53.0549  27.3784 0002559  38.3300 321.7870 15.06387254 91482"}];
